STARLINK-5364
1 55491U 23015AU  26090.83335647  .00056409  00000+0  33363-2 0  9994
2 55491  43.0006 192.0688 0001830 258.1933  35.7202 15.10671502  5817
